PROITERES
1 38756U 12047B   24304.57726527  .00005662  00000-0  75345-3 0  9993
2 38756  98.2566 198.3949 0011394 162.6688 197.4914 14.80071565654271
CP5
1 38763U 12048F   24304.34791376  .00037809  00000-0  20297-2 0  9994
2 38763  64.6591 290.0512 0130312 340.2780  19.3324 15.07650886 26458
METOP-B
1 38771U 12049A   24304.53017499  .00000752  00000-0  36301-3 0  9993
2 38771  98.6117 358.6074 0001385  86.9422 273.1914 14.21562738628788
AAUSAT3
1 39087U 13009B   24304.45943640  .00004028  00000-0  13339-2 0  9993
2 39087  98.3657 131.4810 0011485 193.5229 166.5653 14.38381790611627
STRAND-1
1 39090U 13009E   24304.01387635  .00001819  00000-0  63515-3 0  9992
2 39090  98.3792 128.6299 0008253 203.9338 156.1466 14.36399463611593
RS-43
1 39133U 13015D   24304.55648710  .00017519  00000-0  90749-3 0  9993
2 39133  64.8726  28.0395 0023231 308.0730  51.8300 15.16080505633429
TURKSAT-3U
1 39152U 13018C   24304.48873955  .00014748  00000-0  15469-2 0  9996
2 39152  97.8239  28.5321 0012987 276.4358  83.5380 14.89564140622327
CUBEBUG-1
1 39153U 13018D   24304.59599546  .00015118  00000-0  15687-2 0  9994
2 39153  98.0923  72.7929 0013008 311.0361  48.9730 14.90000258622276
ESTCUBE-1
1 39161U 13021C   24304.15456408  .00008996  00000-0  12570-2 0  9992
2 39161  97.8139   6.5148 0009527 146.5651 213.6163 14.77817066617018
CUSAT
1 39266U 13055B   24304.54775309  .00066376 -13036-6  99638-3 0  9999
2 39266  80.9614   0.2140 0377579  58.4171 305.3325 15.01714937581415
DANDE
1 39267U 13055C   24304.55044523  .00025265  00000-0  58472-3 0  9991
2 39267  80.9945 110.5045 0553650 328.7967  28.1412 14.56250845572918
ESHAIL-1
1 39233U 13044A   24304.57065132  .00000156  00000-0  00000-0 0  9996
2 39233   0.0594  30.7667 0002151 194.2737  45.2717  1.00272208 40665
ZACUBE-1
1 39417U 13066B   24304.59515544  .00018543  00000-0  17815-2 0  9996
2 39417  97.7500 257.8744 0050228  72.3329 288.3365 14.92127219591754
UNISAT-5
1 39421U 13066F   24304.34876379  .00016274  00000-0  14018-2 0  9991
2 39421  97.5986 271.6986 0024371 299.5059  60.3733 14.97181310593408
TRITON-1
1 39427U 13066M   24304.45742538  .00016418  00000-0  21934-2 0  9993
2 39427  97.8377 218.2045 0099934   7.1699 353.0913 14.76131784586157
DELFI-N3XT
1 39428U 13066N   24304.50230618  .00031396  00000-0  36386-2 0  9990
2 39428  97.8334 219.5415 0095609  10.3226 349.9920 14.82095177586102
GOMX-1
1 39430U 13066Q   24304.57589088  .00008493  00000-0  13671-2 0  9992
2 39430  97.7090 170.7324 0136419 181.2631 178.8249 14.65671224582689
HUMSAT-D
1 39433U 13066T   24304.42358328  .00053919  00000-0  27014-2 0  9999
2 39433  97.4975 293.4968 0016146 167.0577 193.1074 15.17055370595195
VELOX-P2
1 39438U 13066Y   24304.59989316  .00012949  00000-0  14148-2 0  9991
2 39438  97.8021 249.5280 0060804 145.3100 215.2105 14.86635631589278
FIRSTMOVE
1 39439U 13066Z   24304.37880061  .00068646  00000-0  42899-2 0  9994
2 39439  97.7265 267.6031 0039994  41.7859 318.6411 15.08490429591190
CUBEBUG-2
1 39440U 13066AA  24304.59461658  .00015333  00000-0  16892-2 0  9996
2 39440  97.8244 245.6233 0065995 189.0572 170.9458 14.86022015588427
FUNCUBE-1
1 39444U 13066AE  24304.59507214  .00026411  00000-0  23052-2 0  9994
2 39444  97.7354 261.4216 0047079  51.4365 309.1060 14.95926695590328
UWE-3
1 39446U 13066AG  24304.34847532  .00016116  00000-0  16706-2 0  9998
2 39446  97.7960 251.5138 0058929 132.8687 227.7501 14.88781378588795
IPEX
1 39471U 13072K   24304.36227881  .00023575  00000-0  14292-2 0  9999
2 39471 120.4719 221.8678 0218716  90.7995 271.8130 14.92759905 25918
MCUBED-2
1 39472U 13072L   24303.86886857  .00057893  00000-0  24658-2 0  9995
2 39472 120.5024 316.5058 0174049 115.1100 246.8136 15.09833259 25331
RS-41
1 39492U 13078C   24304.56643528  .00006791  00000-0  65252-3 0  9994
2 39492  82.4134 125.6663 0019137 105.8149 254.5182 14.92775303586422
RS-46
1 39497U 13076E   24304.59342563  .00000050  00000-0  28713-3 0  9998
2 39497  82.4879 179.1203 0012658 311.5740  48.4254 12.43482260491359
RS-47
1 39765U 14028E   24304.53883279  .00000055  00000-0  17362-3 0  9995
2 39765  82.4454 293.6780 0230836 317.9825  40.3769 12.82881580488777
UNISAT-6
1 40012U 14033C   24304.35233381  .00013911  00000-0  17186-2 0  9999
2 40012  97.7166 101.5727 0050063 223.1686 136.5599 14.82023690557842
BUGSAT-1
1 40014U 14033E   24304.54687487  .00017135  00000-0  11355-2 0  9996
2 40014  98.1101 353.1340 0034526  40.8308 319.5495 15.06874181566007
AURORA
1 40017U 14033H   24304.53709049  .00018936  00000-0  12845-2 0  9992
2 40017  98.1059 334.2835 0016153  77.6303 282.6730 15.06374482565325
PACE
1 40022U 14033N   24304.33254270  .00020964  00000-0  16555-2 0  9993
2 40022  98.0659 267.3538 0011268  66.4952 293.7454 15.00669450563476
DUCHIFAT-1
1 40021U 14033M   24304.45976499  .00049987  00000-0  27125-2 0  9990
2 40021  98.1000 295.9428 0012286  16.1495 344.0124 15.14304450564540
NCBR1
1 40024U 14033Q   24304.38810363  .00036025  00000-0  22889-2 0  9993
2 40024  98.0776 282.6870 0008628  77.6255 282.5937 15.08717875563591
QB50P1
1 40025U 14033R   24304.37182661  .00025244  00000-0  18348-2 0  9992
2 40025  98.0601 270.0501 0015075  85.6937 274.6009 15.03736640563162
POPSATHIP-1
1 40028U 14033U   24304.54342670  .00024826  00000-0  18638-2 0  9999
2 40028  98.0584 271.8439 0010476  53.1248 307.0934 15.02564547563082
DTUSAT-2
1 40030U 14033W   24304.16891143  .00024431  00000-0  18542-2 0  9990
2 40030  98.0259 260.6192 0012026  87.5623 272.6977 15.02140276562933
QB50P2
1 40032U 14033Y   24304.60015197  .00024719  00000-0  18721-2 0  9996
2 40032  98.0175 261.0195 0011821  43.6255 316.5902 15.02220701562978
ANTELSAT
1 40034U 14033AA  24304.37427347  .00017846  00000-0  21319-2 0  9996
2 40034  97.7113 103.3387 0049548 218.0418 141.7294 14.83370523557371
PERSEUS-M2
1 40037U 14033AD  24304.58465259  .00007606  00000-0  75746-3 0  9993
2 40037  97.9340 235.9932 0014535 105.6793 254.6030 14.91824459562000
PERSEUS-M1
1 40039U 14033AF  24304.35885182  .00009287  00000-0  92681-3 0  9995
2 40039  97.9118 231.4235 0014410 105.3977 254.8834 14.91677743561820
POLYITAN
1 40042U 14033AJ  24304.39637613  .00039280  00000-0  25252-2 0  9992
2 40042  98.0854 274.8345 0014240  46.3704 313.8701 15.08210247563179
TIGRISAT
1 40043U 14033AK  24304.39065162  .00012364  00000-0  15789-2 0  9995
2 40043  97.7089 101.5425 0053073 221.9054 137.8092 14.80564246557458
AISAT
1 40054U 14034B   24304.36533084  .00028599  00000-0  27414-2 0  9993
2 40054  98.3161 167.0891 0010824  45.3423 314.8676 14.93043049557954
CANX-4
1 40055U 14034C   24304.41242250  .00005265  00000-0  71892-3 0  9997
2 40055  98.3819 144.8199 0014294 116.4183 243.8496 14.78992837556532
CANX-5
1 40056U 14034D   24304.14606857  .00005311  00000-0  72505-3 0  9999
2 40056  98.3823 144.5527 0014289 117.2968 242.9699 14.79000470547308
VELOX-1
1 40057U 14034E   24304.61465392  .00017823  00000-0  19046-2 0  9990
2 40057  98.3208 166.4348 0010172  64.1951 296.0313 14.88799521557833
METEOR-M2
1 40069U 14037A   24304.57209671  .00000771  00000-0  37410-3 0  9997
2 40069  98.4489 292.8459 0005240 336.8358  23.2583 14.21111838534857
DX-1
1 40071U 14037C   24304.54959566  .00008054  00000-0  92198-3 0  9998
2 40071  98.3302 223.2512 0009162  51.5046 308.6988 14.86221858557650
UKUBE-1
1 40074U 14037F   24304.54700411  .00028465  00000-0  23998-2 0  9993
2 40074  98.3495 243.2033 0004674  13.4469 346.6875 14.98119957559013
HODOYOSHI-1
1 40299U 14070B   24304.60005775  .00105578  00000-0  11657-2 0  9997
2 40299  97.1198   4.0911 0004641 252.4237 107.6515 15.62710335556134
CHUBUSAT-1
1 40300U 14070C   24304.54026757  .00170931  00000-0  13766-2 0  9994
2 40300  97.0612 344.6633 0005420 253.5053 106.5615 15.70382332555752
TSUBAME
1 40302U 14070E   24304.55321412  .07580607  23267-5  15872-2 0  9990
2 40302  97.0729 313.5505 0005577 247.0629 113.0078 16.31002348554429
DEORBITSAIL
1 40719U 15032E   24304.58054324  .00024142  00000-0  24616-2 0  9990
2 40719  97.6666 163.7784 0014283  51.2788 308.9705 14.90575399502234
XW-2C
1 40906U 15049H   24304.56704793  .00129026  00000-0  16060-2 0  9997
2 40906  97.4647 326.2031 0006966 147.9673 212.2008 15.59481139505437
XW-2D
1 40907U 15049J   24304.07966977  .00526428  10584-3  19106-2 0  9990
2 40907  97.4502 330.8487 0005039 146.1055 214.0540 15.88500061505764
LILACSAT-2
1 40908U 15049K   24304.52765868  .00026725  00000-0  89448-3 0  9998
2 40908  97.5219 314.6048 0009532 225.4025 134.6439 15.30895834504163
XW-2B
1 40911U 15049N   24304.42704566  .00474173  00000-0  19972-2 0  9997
2 40911  97.4476 330.9525 0005328 142.8404 217.3235 15.84270084505666
LQSAT
1 40958U 15057A   24304.53719090  .00003561  00000-0  53078-3 0  9992
2 40958  97.6629 317.5813 0018585  45.8902 314.3833 14.75332117487581
FOX-1A
1 40967U 15058D   24304.45497605  .00017088  00000-0  14834-2 0  9994
2 40967  64.7772 320.1274 0188241 263.5148  94.4499 14.84462912 25055
BISONSAT
1 40974U 15058L   24304.31246722  .00040324  00000-0  27083-2 0  9998
2 40974  64.7655 271.4627 0161089 264.1567  94.1165 14.96534529 25948
CHUBUSAT-2
1 41338U 16012B   24304.50269814  .00017640  00000-0  10164-2 0  9999
2 41338  31.0005 238.2255 0010027 160.9208 199.1808 15.11201878478068
CHUBUSAT-3
1 41339U 16012C   24304.50998991  .00015583  00000-0  92029-3 0  9990
2 41339  31.0068 237.6836 0010222 163.4971 196.6001 15.10299459477942
HORYU-4
1 41340U 16012D   24304.02852326  .00041045  00000-0  16876-2 0  9997
2 41340  31.0010 173.1015 0008947 279.7133  80.2498 15.22939554478675
LAPAN-A3
1 41603U 16040E   24304.58086478  .00010080  00000-0  38154-3 0  9997
2 41603  97.1408 312.3127 0011174 350.9190   9.1845 15.27057198463875
BIROS
1 41604U 16040F   24304.44751884  .00044083  00000-0  93225-3 0  9993
2 41604  97.1128 329.4969 0005315 276.4269  83.6375 15.45006747465014
